NORAD_CAT_ID,OBJECT_NAME,OBJECT_TYPE,EPOCH,MEAN_MOTION,ECCENTRICITY,INCLINATION,RA_OF_ASC_NODE,ARG_OF_PERICENTER,MEAN_ANOMALY,BSTAR,MEAN_MOTION_DOT,MEAN_MOTION_DDOT,TLE_LINE0,TLE_LINE1,TLE_LINE2,SEMIMAJOR_AXIS,PERIOD,APOGEE,PERIGEE,DECAYED
52567.0,STARLINK-3929,PAYLOAD,2024-05-20 09:50:08,15.08846865,0.0001739,53.215,194.2601,65.446,294.6713,0.00023631,3.476e-05,0.0,0 STARLINK-3929,1 52567U 22051AL  24141.40981625  .00003476  00000-0  23631-3 0  9990,2 52567  53.2150 194.2601 0001739  65.4460 294.6713 15.08846865112277,6917.859,95.437,540.927,538.521,0.0
52567.0,STARLINK-3929,PAYLOAD,2024-05-21 03:19:23,15.08828625,0.0001848,53.2155,190.9896,82.3038,277.8164,0.0006616,0.00010254,0.0,0 STARLINK-3929,1 52567U 22051AL  24142.13846835  .00010254  00000-0  66160-3 0  9990,2 52567  53.2155 190.9896 0001848  82.3038 277.8164 15.08828625112380,6917.915,95.438,541.059,538.502,0.0
52567.0,STARLINK-3929,PAYLOAD,2024-05-21 08:05:32,15.08835096,0.0001515,53.2166,190.0897,87.9679,272.1486,0.00025757,3.813e-05,0.0,0 STARLINK-3929,1 52567U 22051AL  24142.33718362  .00003813  00000-0  25757-3 0  9995,2 52567  53.2166 190.0897 0001515  87.9679 272.1486 15.08835096112348,6917.895,95.438,540.808,538.712,0.0
52567.0,STARLINK-3929,PAYLOAD,2024-05-22 09:31:42,15.08852178,0.0001569,53.2162,185.3318,83.4427,276.6743,4.5235e-05,4.32e-06,0.0,0 STARLINK-3929,1 52567U 22051AL  24143.39701402  .00000432  00000-0  45235-4 0  9997,2 52567  53.2162 185.3318 0001569  83.4427 276.6743 15.08852178112570,6917.843,95.437,540.794,538.623,0.0
52567.0,STARLINK-3929,PAYLOAD,2024-05-23 03:00:57,15.08837711,0.0001691,53.217,182.0618,84.649,275.4695,7.6441e-05,9.29e-06,0.0,0 STARLINK-3929,1 52567U 22051AL  24144.12566133  .00000929  00000-0  76441-4 0  9993,2 52567  53.2170 182.0618 0001691  84.6490 275.4695 15.08837711112686,6917.887,95.438,540.922,538.583,0.0
52567.0,STARLINK-3929,PAYLOAD,2024-05-23 09:22:29,15.08837116,0.0001758,53.2168,180.8763,88.8623,271.2571,-4.0357e-05,-9.3e-06,0.0,0 STARLINK-3929,1 52567U 22051AL  24144.39062151 -.00000930  00000-0 -40357-4 0  9994,2 52567  53.2168 180.8763 0001758  88.8623 271.2571 15.08837116112651,6917.889,95.438,540.97,538.538,0.0
52567.0,STARLINK-3929,PAYLOAD,2024-05-24 01:16:21,15.08812209,0.0001815,53.2168,177.8972,102.9623,257.1571,0.00049285,7.558e-05,0.0,0 STARLINK-3929,1 52567U 22051AL  24145.05302278  .00007558  00000-0  49285-3 0  9994,2 52567  53.2168 177.8972 0001815 102.9623 257.1571 15.08812209112829,6917.965,95.439,541.086,538.575,0.0
52567.0,STARLINK-3929,PAYLOAD,2024-05-24 07:37:52,15.08853077,0.0001463,53.2168,176.7098,97.5238,262.5921,-3.9631e-07,-2.94e-06,0.0,0 STARLINK-3929,1 52567U 22051AL  24145.31797351 -.00000294  00000-0 -39631-6 0  9992,2 52567  53.2168 176.7098 0001463  97.5238 262.5921 15.08853077112867,6917.84,95.437,540.717,538.693,0.0
52567.0,STARLINK-3929,PAYLOAD,2024-05-24 18:45:35,15.08839657,0.0001461,53.2155,174.6299,118.611,241.5029,-0.00012708,-2.31e-05,0.0,0 STARLINK-3929,1 52567U 22051AL  24145.78165668 -.00002310  00000-0 -12708-3 0  9997,2 52567  53.2155 174.6299 0001461 118.6110 241.5029 15.08839657112937,6917.881,95.438,540.757,538.736,0.0
52567.0,STARLINK-3929,PAYLOAD,2024-05-25 05:53:16,15.08861075,0.0002129,53.2154,172.5472,20.5928,339.5149,0.00042579,6.499e-05,0.0,0 STARLINK-3929,1 52567U 22051AL  24146.24532951  .00006499  00000-0  42579-3 0  9991,2 52567  53.2154 172.5472 0002129  20.5928 339.5149 15.08861075113005,6917.816,95.436,541.154,538.208,0.0
52567.0,STARLINK-3929,PAYLOAD,2024-05-25 10:39:27,15.08829774,0.000154,53.218,171.6589,92.7155,267.4014,4.1207e-05,3.68e-06,0.0,0 STARLINK-3929,1 52567U 22051AL  24146.44406988  .00000368  00000-0  41207-4 0  9990,2 52567  53.2180 171.6589 0001540  92.7155 267.4014 15.08829774113035,6917.912,95.438,540.842,538.711,0.0
52567.0,STARLINK-3929,PAYLOAD,2024-05-25 18:36:22,15.08835112,0.0001282,53.2165,170.169,76.0573,284.0561,2.4016e-05,9.4e-07,0.0,0 STARLINK-3929,1 52567U 22051AL  24146.77526578  .00000094  00000-0  24016-4 0  9999,2 52567  53.2165 170.1690 0001282  76.0573 284.0561 15.08835112113087,6917.895,95.438,540.647,538.873,0.0
52567.0,STARLINK-3929,PAYLOAD,2024-05-26 10:30:14,15.08828997,0.0001154,53.2163,167.196,82.0949,278.0174,-3.9254e-05,-9.12e-06,0.0,0 STARLINK-3929,1 52567U 22051AL  24147.43767328 -.00000912  00000-0 -39254-4 0  9994,2 52567  53.2163 167.1960 0001154  82.0949 278.0174 15.08828997113180,6917.914,95.438,540.577,538.981,0.0
52567.0,STARLINK-3929,PAYLOAD,2024-05-26 18:27:06,15.08934334,0.0005892,53.2164,165.7026,254.7903,105.2438,2.5799e-05,1.22e-06,0.0,0 STARLINK-3929,1 52567U 22051AL  24147.76882624  .00000122  00000-0  25799-4 0  9997,2 52567  53.2164 165.7026 0005892 254.7903 105.2438 15.08934334113232,6917.592,95.432,543.533,535.381,0.0
52567.0,STARLINK-3929,PAYLOAD,2024-05-27 06:00:00,15.08841493,0.0001293,53.214,163.5494,88.8358,6.15,-0.0016561,-0.00026549,0.0,0 STARLINK-3929,1 52567U 22051AL  24148.25001157 -.00026549  00000-0 -16561-2 0  9994,2 52567  53.2140 163.5494 0001293  88.8358   6.1500 15.08841493113302,6917.876,95.437,540.635,538.846,0.0
52567.0,STARLINK-3929,PAYLOAD,2024-05-27 08:45:39,15.08829527,0.0001344,53.2168,163.0351,86.0592,274.0553,6.2279e-05,7.03e-06,0.0,0 STARLINK-3929,1 52567U 22051AL  24148.36503707  .00000703  00000-0  62279-4 0  9995,2 52567  53.2168 163.0351 0001344  86.0592 274.0553 15.08829527113258,6917.912,95.438,540.707,538.848,0.0
52567.0,STARLINK-3929,PAYLOAD,2024-05-27 18:17:58,15.0882531,0.0001549,53.217,161.2524,69.7727,290.3431,7.9464e-05,9.76e-06,0.0,0 STARLINK-3929,1 52567U 22051AL  24148.76248184  .00000976  00000-0  79464-4 0  9990,2 52567  53.2170 161.2524 0001549  69.7727 290.3431 15.08825310113317,6917.925,95.438,540.862,538.719,0.0
52567.0,STARLINK-3929,PAYLOAD,2024-05-29 05:16:26,15.08841338,0.0001272,53.2165,154.7065,85.4347,274.6791,0.00013239,1.82e-05,0.0,0 STARLINK-3929,1 52567U 22051AL  24150.21975466  .00001820  00000-0  13239-3 0  9999,2 52567  53.2165 154.7065 0001272  85.4347 274.6791 15.08841338113608,6917.876,95.437,540.621,538.861,0.0
52567.0,STARLINK-3929,PAYLOAD,2024-05-29 06:51:49,15.08842209,0.0001279,53.2164,154.4089,85.6171,274.4967,0.00014051,1.949e-05,0.0,0 STARLINK-3929,1 52567U 22051AL  24150.28599405  .00001949  00000-0  14051-3 0  9996,2 52567  53.2164 154.4089 0001279  85.6171 274.4967 15.08842209113548,6917.874,95.437,540.623,538.854,0.0
52567.0,STARLINK-3929,PAYLOAD,2024-05-30 06:00:00,15.08877589,0.0001367,53.2157,150.0819,84.0103,115.3644,-0.0041306,-0.00065496,0.0,0 STARLINK-3929,1 52567U 22051AL  24151.25001157 -.00065496  00000-0 -41306-2 0  9997,2 52567  53.2157 150.0819 0001367  84.0103 115.3644 15.08877589113756,6917.765,95.435,540.576,538.685,0.0
52567.0,STARLINK-3929,PAYLOAD,2024-05-30 14:00:01,15.08845423,0.0001314,53.2156,148.5853,84.3209,126.6641,-0.0012267,-0.0001976,0.0,0 STARLINK-3929,1 52567U 22051AL  24151.58334491 -.00019760  00000-0 -12267-2 0  9990,2 52567  53.2156 148.5853 0001314  84.3209 126.6641 15.08845423  5807,6917.864,95.437,540.638,538.82,0.0
52567.0,STARLINK-3929,PAYLOAD,2024-05-30 22:00:01,15.08823303,0.000132,53.2158,147.0875,95.7964,126.8521,0.0023219,0.00036842,0.0,0 STARLINK-3929,1 52567U 22051AL  24151.91668981  .00036842  00000-0  23219-2 0  9998,2 52567  53.2158 147.0875 0001320  95.7964 126.8521 15.08823303113866,6917.931,95.439,540.71,538.883,0.0
52567.0,STARLINK-3929,PAYLOAD,2024-05-31 04:58:00,15.08847396,0.0001264,53.2157,145.7817,98.0305,262.0831,2.3221e-05,8.2e-07,0.0,0 STARLINK-3929,1 52567U 22051AL  24152.20694597  .00000082  00000-0  23221-4 0  9995,2 52567  53.2157 145.7817 0001264  98.0305 262.0831 15.08847396113908,6917.858,95.437,540.597,538.848,0.0
52567.0,STARLINK-3929,PAYLOAD,2024-06-01 04:48:47,15.08844603,0.000139,53.2169,141.3247,100.4794,259.6355,-0.00010055,-1.888e-05,0.0,0 STARLINK-3929,1 52567U 22051AL  24153.20054857 -.00001888  00000-0 -10055-3 0  9992,2 52567  53.2169 141.3247 0001390 100.4794 259.6355 15.08844603114058,6917.866,95.437,540.693,538.77,0.0
52567.0,STARLINK-3929,PAYLOAD,2024-06-01 06:24:10,15.08842775,0.0001381,53.2172,141.0284,92.343,267.772,-6.9152e-05,-1.388e-05,0.0,0 STARLINK-3929,1 52567U 22051AL  24153.26678873 -.00001388  00000-0 -69152-4 0  9996,2 52567  53.2172 141.0284 0001381  92.3430 267.7720 15.08842775113992,6917.872,95.437,540.692,538.782,0.0
52567.0,STARLINK-3929,PAYLOAD,2024-06-02 04:39:34,15.08833136,0.0001486,53.2176,136.8656,95.0381,265.0781,1.2056e-05,-9.6e-07,0.0,0 STARLINK-3929,1 52567U 22051AL  24154.19415456 -.00000096  00000-0  12056-4 0  9990,2 52567  53.2176 136.8656 0001486  95.0381 265.0781 15.08833136114206,6917.901,95.438,540.794,538.738,0.0
52567.0,STARLINK-3929,PAYLOAD,2024-06-02 07:50:21,15.08833999,0.0001486,53.2176,136.2709,94.7945,265.3217,1.74e-05,-1.1e-07,0.0,0 STARLINK-3929,1 52567U 22051AL  24154.32663434 -.00000011  00000-0  17400-4 0  9991,2 52567  53.2176 136.2709 0001486  94.7945 265.3217 15.08833999114159,6917.899,95.438,540.792,538.736,0.0
52567.0,STARLINK-3929,PAYLOAD,2024-06-03 07:41:08,15.08840032,0.0001443,53.2172,131.8094,88.4985,271.6172,9.8628e-05,1.282e-05,0.0,0 STARLINK-3929,1 52567U 22051AL  24155.32023205  .00001282  00000-0  98628-4 0  9999,2 52567  53.2172 131.8094 0001443  88.4985 271.6172 15.08840032114370,6917.88,95.438,540.744,538.747,0.0
52567.0,STARLINK-3929,PAYLOAD,2024-06-03 21:59:36,15.088415,0.0001504,53.2172,129.1325,85.3832,274.7332,0.00013734,1.899e-05,0.0,0 STARLINK-3929,1 52567U 22051AL  24155.91639081  .00001899  00000-0  13734-3 0  9997,2 52567  53.2172 129.1325 0001504  85.3832 274.7332 15.08841500114397,6917.876,95.437,540.781,538.7,0.0
52567.0,STARLINK-3929,PAYLOAD,2024-06-04 04:21:08,15.08845186,0.000138,53.2162,127.943,87.6895,272.4255,0.00016988,2.417e-05,0.0,0 STARLINK-3929,1 52567U 22051AL  24156.18134758  .00002417  00000-0  16988-3 0  9999,2 52567  53.2162 127.9430 0001380  87.6895 272.4255 15.08845186114433,6917.865,95.437,540.684,538.775,0.0
